0 COSMOS 798
1 08614U 76008H   13282.53103407  .00000003  00000-0  14025-3 0  7681
2 08614 074.0536 084.6880 0047279 140.9884 275.8697 12.37702461703505
0 COSMOS 798
1 08614U 76008H   13286.82651657 -.00000034  00000-0 -15011-3 0  7707
2 08614 074.0546 079.1175 0047214 134.6187 335.4260 12.37703057704037
0 COSMOS 798
1 08614U 76008H   13288.84358634 -.00000033  00000-0 -14188-3 0  7714
2 08614 074.0552 076.5019 0047185 131.6368 322.9595 12.37702874704282
0 COSMOS 798
1 08614U 76008H   13291.11259278 -.00000011  00000-0  31810-4 0  7720
2 08614 074.0557 073.5599 0047158 128.2490 353.0899 12.37702637704565
0 COSMOS 798
1 08614U 76008H   13293.44191256  .00000001  00000-0  12533-3 0  7738
2 08614 074.0559 070.5396 0047114 124.8022 291.9276 12.37702551704850
0 COSMOS 798
1 08614U 76008H   13295.46535384  .00000005  00000-0  15397-3 0  7742
2 08614 074.0562 067.9162 0047098 121.7719 307.8871 12.37702671705105
